{"type": "FeatureCollection", "features": [ {"type": "Feature", "properties": {"norad_id": 39122, "name": "EUTELSAT 117 WEST A", "group": "eutelsat", "lat": -0.04130853903446747, "lon": -109.4268795800688, "alt_km": 35772.379354947385, "timestamp": "2025-12-04T19:33:59.302333+00:00", "meta": {"OBJECT_NAME": "EUTELSAT 117 WEST A", "OBJECT_ID": "2013-012A", "EPOCH": "2025-12-04T05:41:31.309152", "MEAN_MOTION": 1.00272356, "ECCENTRICITY": 0.00032035, "INCLINATION": 0.0197, "RA_OF_ASC_NODE": 312.7527, "ARG_OF_PERICENTER": 302.8271, "MEAN_ANOMALY": 146.3287, "EPHEMERIS_TYPE": 0, "CLASSIFICATION_TYPE": "U", "NORAD_CAT_ID": 39122, "ELEMENT_SET_NO": 999, "REV_AT_EPOCH": 4647, "BSTAR": 0, "MEAN_MOTION_DOT": 3e-08, "MEAN_MOTION_DDOT": 0}, "tle": {"line1": "1 39122U 13012A   25338.23716793  .00000003  00000+0  00000+0 0  9994", "line2": "2 39122   0.0197 312.7527 0003203 302.8271 146.3287  1.00272356 46472"}}, "geometry": {"type": "Point", "coordinates": [-109.4268795800688, -0.04130853903446747]}}, {"type": "Feature", "properties": {"norad_id": 39163, "name": "EUTELSAT 7B", "group": "eutelsat", "lat": 0.03190653540259288, "lon": 14.395705834141838, "alt_km": 35778.66361385111, "timestamp": "2025-12-04T19:33:59.302346+00:00", "meta": {"OBJECT_NAME": "EUTELSAT 7B", "OBJECT_ID": "2013-022A", "EPOCH": "2025-12-04T05:11:56.717952", "MEAN_MOTION": 1.00269649, "ECCENTRICITY": 0.00042596, "INCLINATION": 0.068, "RA_OF_ASC_NODE": 1.8831, "ARG_OF_PERICENTER": 309.1609, "MEAN_ANOMALY": 207.2315, "EPHEMERIS_TYPE": 0, "CLASSIFICATION_TYPE": "U", "NORAD_CAT_ID": 39163, "ELEMENT_SET_NO": 999, "REV_AT_EPOCH": 4600, "BSTAR": 0, "MEAN_MOTION_DOT": 6.4e-07, "MEAN_MOTION_DDOT": 0}, "tle": {"line1": "1 39163U 13022A   25338.21662868  .00000064  00000+0  00000+0 0  9998", "line2": "2 39163   0.0680   1.8831 0004259 309.1609 207.2315  1.00269649 46004"}}, "geometry": {"type": "Point", "coordinates": [14.395705834141838, 0.03190653540259288]}}, {"type": "Feature", "properties": {"norad_id": 39612, "name": "EXPRESS-AT1", "group": "eutelsat", "lat": 0.039496259571082964, "lon": 63.35618549268949, "alt_km": 35786.63285197704, "timestamp": "2025-12-04T19:33:59.302363+00:00", "meta": {"OBJECT_NAME": "EXPRESS-AT1", "OBJECT_ID": "2014-010A", "EPOCH": "2025-12-04T13:59:33.080064", "MEAN_MOTION": 1.00270212, "ECCENTRICITY": 1.36e-05, "INCLINATION": 0.0176, "RA_OF_ASC_NODE": 304.2222, "ARG_OF_PERICENTER": 222.5945, "MEAN_ANOMALY": 172.7241, "EPHEMERIS_TYPE": 0, "CLASSIFICATION_TYPE": "U", "NORAD_CAT_ID": 39612, "ELEMENT_SET_NO": 999, "REV_AT_EPOCH": 4286, "BSTAR": 0, "MEAN_MOTION_DOT": 9.3e-07, "MEAN_MOTION_DDOT": 0}, "tle": {"line1": "1 39612U 14010A   25338.58302176  .00000093  00000+0  00000+0 0  9990", "line2": "2 39612   0.0176 304.2222 0000136 222.5945 172.7241  1.00270212 42860"}}, "geometry": {"type": "Point", "coordinates": [63.35618549268949, 0.039496259571082964]}}, {"type": "Feature", "properties": {"norad_id": 39613, "name": "EXPRESS-AT2", "group": "eutelsat", "lat": 0.004600032195542551, "lon": 147.19471157961075, "alt_km": 35791.896729932705, "timestamp": "2025-12-04T19:33:59.302389+00:00", "meta": {"OBJECT_NAME": "EXPRESS-AT2", "OBJECT_ID": "2014-010B", "EPOCH": "2025-12-04T07:32:36.708000", "MEAN_MOTION": 1.00270269, "ECCENTRICITY": 0.00015116, "INCLINATION": 0.0214, "RA_OF_ASC_NODE": 337.5162, "ARG_OF_PERICENTER": 316.7864, "MEAN_ANOMALY": 32.0865, "EPHEMERIS_TYPE": 0, "CLASSIFICATION_TYPE": "U", "NORAD_CAT_ID": 39613, "ELEMENT_SET_NO": 999, "REV_AT_EPOCH": 4254, "BSTAR": 0, "MEAN_MOTION_DOT": 0, "MEAN_MOTION_DDOT": 0}, "tle": {"line1": "1 39613U 14010B   25338.31431375  .00000000  00000+0  00000+0 0  9994", "line2": "2 39613   0.0214 337.5162 0001511 316.7864  32.0865  1.00270269 42547"}}, "geometry": {"type": "Point", "coordinates": [147.19471157961075, 0.004600032195542551]}}, {"type": "Feature", "properties": {"norad_id": 39773, "name": "EUTELSAT 3B", "group": "eutelsat", "lat": 0.022802844102993308, "lon": 10.488728488131024, "alt_km": 35802.060384196666, "timestamp": "2025-12-04T19:33:59.302411+00:00", "meta": {"OBJECT_NAME": "EUTELSAT 3B", "OBJECT_ID": "2014-030A", "EPOCH": "2025-12-04T05:10:49.325088", "MEAN_MOTION": 1.00270965, "ECCENTRICITY": 0.00047767, "INCLINATION": 0.0636, "RA_OF_ASC_NODE": 4.0806, "ARG_OF_PERICENTER": 224.8213, "MEAN_ANOMALY": 285.1915, "EPHEMERIS_TYPE": 0, "CLASSIFICATION_TYPE": "U", "NORAD_CAT_ID": 39773, "ELEMENT_SET_NO": 999, "REV_AT_EPOCH": 4211, "BSTAR": 0, "MEAN_MOTION_DOT": 3.6e-07, "MEAN_MOTION_DDOT": 0}, "tle": {"line1": "1 39773U 14030A   25338.21584867  .00000036  00000+0  00000+0 0  9996", "line2": "2 39773   0.0636   4.0806 0004776 224.8213 285.1915  1.00270965 42119"}}, "geometry": {"type": "Point", "coordinates": [10.488728488131024, 0.022802844102993308]}}, {"type": "Feature", "properties": {"norad_id": 40425, "name": "EUTELSAT 115 WEST B", "group": "eutelsat", "lat": 0.012853726460225832, "lon": -107.51918361382401, "alt_km": 35787.542557575725, "timestamp": "2025-12-04T19:33:59.302423+00:00", "meta": {"OBJECT_NAME": "EUTELSAT 115 WEST B", "OBJECT_ID": "2015-010B", "EPOCH": "2025-12-04T06:19:51.176928", "MEAN_MOTION": 1.0027368, "ECCENTRICITY": 4.932e-05, "INCLINATION": 0.0127, "RA_OF_ASC_NODE": 145.1164, "ARG_OF_PERICENTER": 271.4317, "MEAN_ANOMALY": 356.8728, "EPHEMERIS_TYPE": 0, "CLASSIFICATION_TYPE": "U", "NORAD_CAT_ID": 40425, "ELEMENT_SET_NO": 999, "REV_AT_EPOCH": 3943, "BSTAR": 0, "MEAN_MOTION_DOT": -1e-07, "MEAN_MOTION_DDOT": 0}, "tle": {"line1": "1 40425U 15010B   25338.26378677 -.00000010  00000+0  00000+0 0  9999", "line2": "2 40425   0.0127 145.1164 0000493 271.4317 356.8728  1.00273680 39435"}}, "geometry": {"type": "Point", "coordinates": [-107.51918361382401, 0.012853726460225832]}}, {"type": "Feature", "properties": {"norad_id": 40875, "name": "EUTELSAT 8 WEST B", "group": "eutelsat", "lat": 0.024773055158252427, "lon": -0.5847573392170562, "alt_km": 35790.30309813309, "timestamp": "2025-12-04T19:33:59.302434+00:00", "meta": {"OBJECT_NAME": "EUTELSAT 8 WEST B", "OBJECT_ID": "2015-039B", "EPOCH": "2025-12-04T05:07:42.123936", "MEAN_MOTION": 1.00271624, "ECCENTRICITY": 0.00041346, "INCLINATION": 0.0653, "RA_OF_ASC_NODE": 348.9343, "ARG_OF_PERICENTER": 266.6738, "MEAN_ANOMALY": 246.6167, "EPHEMERIS_TYPE": 0, "CLASSIFICATION_TYPE": "U", "NORAD_CAT_ID": 40875, "ELEMENT_SET_NO": 999, "REV_AT_EPOCH": 3770, "BSTAR": 0, "MEAN_MOTION_DOT": -5e-07, "MEAN_MOTION_DDOT": 0}, "tle": {"line1": "1 40875U 15039B   25338.21368199 -.00000050  00000+0  00000+0 0  9996", "line2": "2 40875   0.0653 348.9343 0004134 266.6738 246.6167  1.00271624 37706"}}, "geometry": {"type": "Point", "coordinates": [-0.5847573392170562, 0.024773055158252427]}}, {"type": "Feature", "properties": {"norad_id": 41310, "name": "EUTELSAT 9B", "group": "eutelsat", "lat": -0.03202339413108664, "lon": 16.400999756058763, "alt_km": 35793.64472035996, "timestamp": "2025-12-04T19:33:59.302446+00:00", "meta": {"OBJECT_NAME": "EUTELSAT 9B", "OBJECT_ID": "2016-005A", "EPOCH": "2025-12-04T05:12:26.670240", "MEAN_MOTION": 1.00271535, "ECCENTRICITY": 0.00049541, "INCLINATION": 0.0679, "RA_OF_ASC_NODE": 75.3059, "ARG_OF_PERICENTER": 190.1546, "MEAN_ANOMALY": 254.9316, "EPHEMERIS_TYPE": 0, "CLASSIFICATION_TYPE": "U", "NORAD_CAT_ID": 41310, "ELEMENT_SET_NO": 999, "REV_AT_EPOCH": 3616, "BSTAR": 0, "MEAN_MOTION_DOT": 7.8e-07, "MEAN_MOTION_DDOT": 0}, "tle": {"line1": "1 41310U 16005A   25338.21697535  .00000078  00000+0  00000+0 0  9993", "line2": "2 41310   0.0679  75.3059 0004954 190.1546 254.9316  1.00271535 36160"}}, "geometry": {"type": "Point", "coordinates": [16.400999756058763, -0.03202339413108664]}}, {"type": "Feature", "properties": {"norad_id": 41382, "name": "EUTELSAT 65 WEST A", "group": "eutelsat", "lat": -0.046690624270972925, "lon": -57.82199100617186, "alt_km": 35777.56355548392, "timestamp": "2025-12-04T19:33:59.302457+00:00", "meta": {"OBJECT_NAME": "EUTELSAT 65 WEST A", "OBJECT_ID": "2016-014A", "EPOCH": "2025-12-04T06:34:04.814976", "MEAN_MOTION": 1.00270333, "ECCENTRICITY": 0.00028281, "INCLINATION": 0.0496, "RA_OF_ASC_NODE": 347.1995, "ARG_OF_PERICENTER": 273.664, "MEAN_ANOMALY": 205.8051, "EPHEMERIS_TYPE": 0, "CLASSIFICATION_TYPE": "U", "NORAD_CAT_ID": 41382, "ELEMENT_SET_NO": 999, "REV_AT_EPOCH": 3558, "BSTAR": 0, "MEAN_MOTION_DOT": -2.61e-06, "MEAN_MOTION_DDOT": 0}, "tle": {"line1": "1 41382U 16014A   25338.27366684 -.00000261  00000+0  00000+0 0  9991", "line2": "2 41382   0.0496 347.1995 0002828 273.6640 205.8051  1.00270333 35586"}}, "geometry": {"type": "Point", "coordinates": [-57.82199100617186, -0.046690624270972925]}}, {"type": "Feature", "properties": {"norad_id": 41589, "name": "EUTELSAT 117 WEST B", "group": "eutelsat", "lat": 0.01671914453188781, "lon": -109.64222151575372, "alt_km": 35787.25055106281, "timestamp": "2025-12-04T19:33:59.302468+00:00", "meta": {"OBJECT_NAME": "EUTELSAT 117 WEST B", "OBJECT_ID": "2016-038B", "EPOCH": "2025-12-04T02:38:16.325088", "MEAN_MOTION": 1.0026993, "ECCENTRICITY": 1.619e-05, "INCLINATION": 0.0084, "RA_OF_ASC_NODE": 141.8858, "ARG_OF_PERICENTER": 294.8653, "MEAN_ANOMALY": 279.0065, "EPHEMERIS_TYPE": 0, "CLASSIFICATION_TYPE": "U", "NORAD_CAT_ID": 41589, "ELEMENT_SET_NO": 999, "REV_AT_EPOCH": 3470, "BSTAR": 0, "MEAN_MOTION_DOT": 5e-08, "MEAN_MOTION_DDOT": 0}, "tle": {"line1": "1 41589U 16038B   25338.10991117  .00000005  00000+0  00000+0 0  9998", "line2": "2 41589   0.0084 141.8858 0000161 294.8653 279.0065  1.00269930 34704"}}, "geometry": {"type": "Point", "coordinates": [-109.64222151575372, 0.01671914453188781]}}]}